KUIPER-00095            
1 65134U 25171C   25237.71261506  .00012077  00000+0  35886-3 0  9991
2 65134  51.8775 336.3002 0004812 198.1807 161.9007 15.35166024  3437
KUIPER-00096            
1 65135U 25171D   25237.77558247  .00028517  00000+0  82411-3 0  9991
2 65135  51.8771 335.9710 0004863 186.8289 173.2632 15.35409915  3449
KUIPER-00097            
1 65136U 25171E   25237.71322667  .00012060  00000+0  35913-3 0  9992
2 65136  51.8774 336.3042 0004858 201.6059 158.4723 15.35099698  3428
KUIPER-00098            
1 65137U 25171F   25237.70651949  .00014674  00000+0  42540-3 0  9997
2 65137  51.8776 336.2628 0005816 172.0224 188.0855 15.35757001  2771
KUIPER-00099            
1 65138U 25171G   25237.77323638  .00025454  00000+0  73115-3 0  9996
2 65138  51.8781 335.9604 0005440 174.9060 185.1982 15.35660070  3432
KUIPER-00100            
1 65139U 25171H   25237.77484617  .00026550  00000+0  76635-3 0  9990
2 65139  51.8772 335.9648 0005231 182.8448 177.2509 15.35485320  3437
KUIPER-00102            
1 65140U 25171J   25237.77760548  .00017931  00000+0  52719-3 0  9992
2 65140  51.8770 335.9833 0004680 193.7161 166.3698 15.35158110  3435
KUIPER-00103            
1 65141U 25171K   25237.77615576  .00022266  00000+0  64753-3 0  9991
2 65141  51.8772 335.9737 0004772 189.0490 171.0411 15.35354548  3435
